{
  "norad_id": 63064,
  "name": "STARLINK-11408 [DTC]",
  "history": [
    {
      "epoch": "2026-03-28T22:43:59.935008",
      "apogee_km": 357.43063959477513,
      "perigee_km": 355.3079232148757,
      "latitude_deg": 1.2859487908906213,
      "longitude_deg": -142.66673888009973,
      "semi_major_axis_km": 6734.506281404825,
      "eccentricity": 0.0001576,
      "inclination_deg": 42.9978,
      "raan_deg": 258.8958,
      "arg_perigee_deg": 267.9925,
      "mean_anomaly_deg": 92.0762,
      "mean_motion_rev_day": 15.70884008
    }
  ]
}